{
    "links": {
        "self": "http://www.neowsapp.com/rest/v1/neo/3568559?api_key=iIulBulltgU6a56xZRHN4H3l9WmuAYTsLGpBGhQ2"
    },
    "id": "3568559",
    "neo_reference_id": "3568559",
    "name": "(2011 NV)",
    "designation": "2011 NV",
    "nasa_jpl_url": "http://ssd.jpl.nasa.gov/sbdb.cgi?sstr=3568559",
    "absolute_magnitude_h": 22.5,
    "estimated_diameter": {
        "kilometers": {
            "estimated_diameter_min": 0.0840533402,
            "estimated_diameter_max": 0.1879489824
        },
        "meters": {
            "estimated_diameter_min": 84.0533402073,
            "estimated_diameter_max": 187.9489824394
        },
        "miles": {
            "estimated_diameter_min": 0.0522283081,
            "estimated_diameter_max": 0.1167860472
        },
        "feet": {
            "estimated_diameter_min": 275.7655606856,
            "estimated_diameter_max": 616.6305395464
        }
    },
    "is_potentially_hazardous_asteroid": false,
    "close_approach_data": [
        {
            "close_approach_date": "2006-08-02",
            "close_approach_date_full": "2006-Aug-02 12:07",
            "epoch_date_close_approach": 1154520420000,
            "relative_velocity": {
                "kilometers_per_second": "7.9668949384",
                "kilometers_per_hour": "28680.8217782867",
                "miles_per_hour": "17821.147287736"
            },
            "miss_distance": {
                "astronomical": "0.2581558755",
                "lunar": "100.4226355695",
                "kilometers": "38619569.102785185",
                "miles": "23997087.480738153"
            },
            "orbiting_body": "Earth"
        },
        {
            "close_approach_date": "2011-08-03",
            "close_approach_date_full": "2011-Aug-03 19:05",
            "epoch_date_close_approach": 1312398300000,
            "relative_velocity": {
                "kilometers_per_second": "8.5211187493",
                "kilometers_per_hour": "30676.0274975452",
                "miles_per_hour": "19060.8905303497"
            },
            "miss_distance": {
                "astronomical": "0.2326017417",
                "lunar": "90.4820775213",
                "kilometers": "34796725.116610179",
                "miles": "21621682.3767273102"
            },
            "orbiting_body": "Earth"
        },
        {
            "close_approach_date": "2016-08-03",
            "close_approach_date_full": "2016-Aug-03 04:26",
            "epoch_date_close_approach": 1470198360000,
            "relative_velocity": {
                "kilometers_per_second": "9.296991155",
                "kilometers_per_hour": "33469.1681580873",
                "miles_per_hour": "20796.4395146737"
            },
            "miss_distance": {
                "astronomical": "0.225385334",
                "lunar": "87.674894926",
                "kilometers": "33717165.89563858",
                "miles": "20950875.382549204"
            },
            "orbiting_body": "Earth"
        },
        {
            "close_approach_date": "2021-08-02",
            "close_approach_date_full": "2021-Aug-02 20:23",
            "epoch_date_close_approach": 1627935780000,
            "relative_velocity": {
                "kilometers_per_second": "10.3779480448",
                "kilometers_per_hour": "37360.6129612458",
                "miles_per_hour": "23214.4319813919"
            },
            "miss_distance": {
                "astronomical": "0.2397572473",
                "lunar": "93.2655691997",
                "kilometers": "35867173.513143251",
                "miles": "22286828.1671128238"
            },
            "orbiting_body": "Earth"
        }
    ],
    "orbital_data": {
        "orbit_id": "10",
        "orbit_determination_date": "2017-04-06 08:53:11",
        "first_observation_date": "2011-07-03",
        "last_observation_date": "2011-08-27",
        "data_arc_in_days": 55,
        "observations_used": 25,
        "orbit_uncertainty": "7",
        "minimum_orbit_intersection": ".226183",
        "jupiter_tisserand_invariant": "3.883",
        "epoch_osculation": "2459000.5",
        "eccentricity": ".3923997747484897",
        "semi_major_axis": "1.83925091218854",
        "inclination": "15.46441830047942",
        "ascending_node_longitude": "281.9060126102451",
        "orbital_period": "911.0870989164158",
        "perihelion_distance": "1.117529268539802",
        "perihelion_argument": "67.471293898997",
        "aphelion_distance": "2.560972555837277",
        "perihelion_time": "2458553.753188374337",
        "mean_anomaly": "176.52412417706",
        "mean_motion": ".3951323648728636",
        "equinox": "J2000",
        "orbit_class": {
            "orbit_class_type": "AMO",
            "orbit_class_description": "Near-Earth asteroid orbits similar to that of 1221 Amor",
            "orbit_class_range": "1.017 AU < q (perihelion) < 1.3 AU"
        }
    },
    "is_sentry_object": false
}